#aV2018 12 20  0  0  0.00000000     288 DD+AD WGS84 FIT  NGA
## 2032 345600.00000000   300.00000000 58472 0.0000000000000
+   31     1  2  3  5  6  7  8  9 10 11 12 13 14 15 16 17 18
+         19 20 21 22 23 24 25 26 27 28 29 30 31 32  0  0  0
+          0  0  0  0  0  0  0  0  0  0  0  0  0  0  0  0  0
+          0  0  0  0  0  0  0  0  0  0  0  0  0  0  0  0  0
+          0  0  0  0  0  0  0  0  0  0  0  0  0  0  0  0  0
++         2  2  2  2  2  2  2  2  2  2  2  2  2  2  2  2  2
++         2  2  2  2  2  2  2  2  2  2  2  2  2  2  0  0  0
++         0  0  0  0  0  0  0  0  0  0  0  0  0  0  0  0  0
++         0  0  0  0  0  0  0  0  0  0  0  0  0  0  0  0  0
++         0  0  0  0  0  0  0  0  0  0  0  0  0  0  0  0  0
%c cc cc ccc ccc cccc cccc cccc cccc ccccc ccccc ccccc ccccc
%c cc cc ccc ccc cccc cccc cccc cccc ccccc ccccc ccccc ccccc
%f  0.0000000  0.000000000  0.00000000000  0.000000000000000
%f  0.0000000  0.000000000  0.00000000000  0.000000000000000
%i    0    0    0    0      0      0      0      0         0
%i    0    0    0    0      0      0      0      0         0
/*      NGA, ST. LOUIS,MO.                                  
/*   EPHEMERIS COMPUTED FROM 2 DAYS OF DATA                 
/*   EPOCHA v3 SMOOTHER                                     
/*   G1762 IERS2010 SATAF SATAPC                            
*  2018 12 20 17  5  0.00000000
P  1 -13206.077100  13734.967273  18202.116891   -131.959992                    
V  1   -135.361774 -23587.902066  17834.649512     -0.059750                    
P  2  13927.399229  10455.610927 -19523.547561    -90.986886                    
V  2  -1105.513550  26061.075867  12586.213086     -0.102873                    
P  3 -22746.350576  13426.979918  -2434.445692    171.138553                    
V  3  -4000.570427  -1147.164323  31623.150152      0.030751                    
P  5  21850.206487    734.732122 -15339.655533      0.475530                    
V  5 -15929.412518  10952.461945 -22141.149406      0.001809                    
P  6   7380.617268  22200.279023 -12520.263924    312.758343                    
V  6  -2817.683610  15816.962999  26326.630980     -0.070613                    
P  7  -6380.606544  24602.490158  -6591.033173     66.979172                    
V  7  -2597.993536  -9002.202466 -30449.389332     -0.070043                    
P  8 -22571.921334  -3052.222628  13858.885546   -126.254369                    
V  8 -13741.504160 -10870.543654 -24692.271504     -0.013301                    
P  9  -5311.143839  14744.656204 -21491.384379    481.122870                    
V  9 -23201.552882 -14216.575164  -4036.661465     -0.040563                    
P 10  -1712.662024 -15800.853387  21295.794230    148.716220                    
V 10  24324.527403 -11663.024224  -6894.889191     -0.056159                    
P 11 -13721.121334   8732.278000  20477.603953   -686.214956                    
V 11 -10609.111350 -25322.638088   3373.799785      0.047639                    
P 12  24407.292057 -10210.113418    313.170806    282.971374                    
V 12    287.281417   2289.464360  32389.591823     -0.029993                    
P 13  22476.741734  11306.318225   8440.163971    -80.980866                    
V 13   6770.622534   8827.605019 -29414.246068      0.011981                    
P 14 -17511.403498 -19140.405635   6419.716812    -94.372620                    
V 14   7656.213140   2714.242475  30233.708886      0.005461                    
P 15  21783.253640  -1286.533837  15149.975985   -335.517128                    
V 15  16150.800099  11431.925275 -21493.680860      0.014697                    
P 16 -21514.486574  -2599.091890 -15809.338104     -7.778960                    
V 16  17699.527991  -8386.944228 -22529.950656     -0.022269                    
P 17  10275.850042  19786.966548  14925.009622    -16.002521                    
V 17 -15469.014422  -9591.039031  23921.567995      0.051208                    
P 18 -15075.744803   3066.405740  21162.415838      7.484365                    
V 18   -255.666899 -28049.842717   3941.733229      0.039538                    
P 19  17583.862811  18929.531665   5604.824140   -371.901651                    
V 19  -7247.676279  -2955.106664  31212.631785      0.038886                    
P 20   7610.584997 -19507.506696  16145.750894    520.175757                    
V 20  18822.746265  -9378.918391 -20184.246273      0.004528                    
P 21   2224.854393 -26217.565342  -3100.832042   -283.915645                    
V 21   3247.546039   4910.335286 -31070.926956      0.067552                    
P 22 -24205.230609   9412.069923   5685.772007   -603.341201                    
V 22   4073.473952  -6806.515590  29865.905095     -0.091730                    
P 23 -15389.047674   7547.825050 -20081.650322   -202.979226                    
V 23 -21608.204963 -14750.384859  10442.202024      0.011130                    
P 24  14710.757699  -8799.289829  20070.571990    -59.763221                    
V 24   1184.883719  25960.997459  10759.150834     -0.004924                    
P 25  18300.827214 -16574.895519  -9636.280726   -694.033946                    
V 25  11806.430573  -3300.127763  28902.630006     -0.054950                    
P 26 -14100.120776  -9067.729913 -20644.323787     73.210183                    
V 26  22674.478414 -13122.088792  -9564.713962      0.107791                    
P 27 -23640.948990 -11395.926328   4881.593165    -35.387878                    
V 27  -4157.041237  -5069.417693 -31158.109256     -0.059995                    
P 28  -1526.238992  16144.521358  21675.709376    759.205721                    
V 28 -24288.515766   9261.979828  -8791.214668      0.013997                    
P 29   8612.392255 -11906.675161 -22142.903892    311.299015                    
V 29  22452.699534  16728.720433   -263.396190     -0.081474                    
P 30    579.478263  26095.560945   4402.803954    -22.815034                    
V 30  -4013.226986   5236.454629 -30789.749671     -0.059213                    
P 31  -8739.391425 -19953.818025 -14871.800720     71.496893                    
V 31   3910.366520 -18825.645181  23366.882534     -0.026295                    
P 32 -13129.563736 -19233.620710  12904.150312   -310.572654                    
V 32  14958.314458   6861.127050  25420.841036      0.158986                    
EOF
